{
  "type": "FeatureCollection",
  "features": [
    {
      "type": "Feature",
      "properties": {
        "norad_id": 38755,
        "name": "SPOT 6",
        "group": "resource",
        "lat": 36.03310492232314,
        "lon": 56.98806198378244,
        "alt_km": 694.7363417569113,
        "timestamp": "2025-12-24T09:46:30.652361+00:00",
        "meta_object_name": "SPOT 6",
        "meta_object_id": "2012-047A",
        "meta_epoch": "2025-12-24T04:40:09.183072",
        "meta_mean_motion": 14.5854187,
        "meta_eccentricity": 0.0001236,
        "meta_inclination": 98.1557,
        "meta_ra_of_asc_node": 62.7672,
        "meta_arg_of_pericenter": 78.4503,
        "meta_mean_anomaly": 281.6835,
        "meta_ephemeris_type": 0,
        "meta_classification_type": "U",
        "meta_norad_cat_id": 38755,
        "meta_element_set_no": 999,
        "meta_rev_at_epoch": 70754,
        "meta_bstar": 8.809e-05,
        "meta_mean_motion_dot": 3.64e-06,
        "meta_mean_motion_ddot": 0,
        "tle_line1": "1 38755U 12047A   25358.19455073  .00000364  00000+0  88090-4 0  9990",
        "tle_line2": "2 38755  98.1557  62.7672 0001236  78.4503 281.6835 14.58541870707543"
      },
      "geometry": {
        "type": "Point",
        "coordinates": [
          56.98806198378244,
          36.03310492232314
        ]
      }
    },
    {
      "type": "Feature",
      "properties": {
        "norad_id": 39019,
        "name": "PLEIADES 1B",
        "group": "resource",
        "lat": -63.908910101575984,
        "lon": 87.9520235480034,
        "alt_km": 705.7199628599701,
        "timestamp": "2025-12-24T09:46:30.652372+00:00",
        "meta_object_name": "PLEIADES 1B",
        "meta_object_id": "2012-068A",
        "meta_epoch": "2025-12-24T05:08:02.847840",
        "meta_mean_motion": 14.58562673,
        "meta_eccentricity": 0.0001131,
        "meta_inclination": 98.1782,
        "meta_ra_of_asc_node": 70.6842,
        "meta_arg_of_pericenter": 86.8042,
        "meta_mean_anomaly": 273.3286,
        "meta_ephemeris_type": 0,
        "meta_classification_type": "U",
        "meta_norad_cat_id": 39019,
        "meta_element_set_no": 999,
        "meta_rev_at_epoch": 69534,
        "meta_bstar": 8.6089e-05,
        "meta_mean_motion_dot": 3.55e-06,
        "meta_mean_motion_ddot": 0,
        "tle_line1": "1 39019U 12068A   25358.21392185  .00000355  00000+0  86089-4 0  9990",
        "tle_line2": "2 39019  98.1782  70.6842 0001131  86.8042 273.3286 14.58562673695345"
      },
      "geometry": {
        "type": "Point",
        "coordinates": [
          87.9520235480034,
          -63.908910101575984
        ]
      }
    },
    {
      "type": "Feature",
      "properties": {
        "norad_id": 39030,
        "name": "GOKTURK 2",
        "group": "resource",
        "lat": 47.374159490331394,
        "lon": 27.926595449044633,
        "alt_km": 639.1195384419634,
        "timestamp": "2025-12-24T09:46:30.652382+00:00",
        "meta_object_name": "GOKTURK 2",
        "meta_object_id": "2012-073A",
        "meta_epoch": "2025-12-24T04:17:44.635776",
        "meta_mean_motion": 14.7530492,
        "meta_eccentricity": 0.0001396,
        "meta_inclination": 97.6883,
        "meta_ra_of_asc_node": 199.2696,
        "meta_arg_of_pericenter": 107.2476,
        "meta_mean_anomaly": 252.8886,
        "meta_ephemeris_type": 0,
        "meta_classification_type": "U",
        "meta_norad_cat_id": 39030,
        "meta_element_set_no": 999,
        "meta_rev_at_epoch": 69870,
        "meta_bstar": 5.8451e-05,
        "meta_mean_motion_dot": 3.49e-06,
        "meta_mean_motion_ddot": 0,
        "tle_line1": "1 39030U 12073A   25358.17898884  .00000349  00000+0  58451-4 0  9996",
        "tle_line2": "2 39030  97.6883 199.2696 0001396 107.2476 252.8886 14.75304920698700"
      },
      "geometry": {
        "type": "Point",
        "coordinates": [
          27.926595449044633,
          47.374159490331394
        ]
      }
    },
    {
      "type": "Feature",
      "properties": {
        "norad_id": 39084,
        "name": "LANDSAT 8",
        "group": "resource",
        "lat": 43.71593691251436,
        "lon": 58.37726678088158,
        "alt_km": 698.3315165182348,
        "timestamp": "2025-12-24T09:46:30.652396+00:00",
        "meta_object_name": "LANDSAT 8",
        "meta_object_id": "2013-008A",
        "meta_epoch": "2025-12-24T02:58:49.342080",
        "meta_mean_motion": 14.57113636,
        "meta_eccentricity": 0.000106,
        "meta_inclination": 98.2057,
        "meta_ra_of_asc_node": 66.0289,
        "meta_arg_of_pericenter": 92.9776,
        "meta_mean_anomaly": 267.1543,
        "meta_ephemeris_type": 0,
        "meta_classification_type": "U",
        "meta_norad_cat_id": 39084,
        "meta_element_set_no": 999,
        "meta_rev_at_epoch": 67240,
        "meta_bstar": 0.00010048,
        "meta_mean_motion_dot": 4.08e-06,
        "meta_mean_motion_ddot": 0,
        "tle_line1": "1 39084U 13008A   25358.12418220  .00000408  00000+0  10048-3 0  9996",
        "tle_line2": "2 39084  98.2057  66.0289 0001060  92.9776 267.1543 14.57113636672409"
      },
      "geometry": {
        "type": "Point",
        "coordinates": [
          58.37726678088158,
          43.71593691251436
        ]
      }
    },
    {
      "type": "Feature",
      "properties": {
        "norad_id": 39086,
        "name": "SARAL",
        "group": "resource",
        "lat": 81.36546685076449,
        "lon": 99.990293478373,
        "alt_km": 772.9363789603685,
        "timestamp": "2025-12-24T09:46:30.652407+00:00",
        "meta_object_name": "SARAL",
        "meta_object_id": "2013-009A",
        "meta_epoch": "2025-12-24T02:39:29.240640",
        "meta_mean_motion": 14.32760818,
        "meta_eccentricity": 0.0002962,
        "meta_inclination": 98.5503,
        "meta_ra_of_asc_node": 181.8927,
        "meta_arg_of_pericenter": 87.3964,
        "meta_mean_anomaly": 272.7559,
        "meta_ephemeris_type": 0,
        "meta_classification_type": "U",
        "meta_norad_cat_id": 39086,
        "meta_element_set_no": 999,
        "meta_rev_at_epoch": 67053,
        "meta_bstar": 5.9632e-05,
        "meta_mean_motion_dot": 1.19e-06,
        "meta_mean_motion_ddot": 0,
        "tle_line1": "1 39086U 13009A   25358.11075510  .00000119  00000+0  59632-4 0  9991",
        "tle_line2": "2 39086  98.5503 181.8927 0002962  87.3964 272.7559 14.32760818670538"
      },
      "geometry": {
        "type": "Point",
        "coordinates": [
          99.990293478373,
          81.36546685076449
        ]
      }
    },
    {
      "type": "Feature",
      "properties": {
        "norad_id": 39150,
        "name": "GAOFEN-1",
        "group": "resource",
        "lat": -78.39920149570916,
        "lon": -153.91540186907602,
        "alt_km": 659.3817038878833,
        "timestamp": "2025-12-24T09:46:30.652417+00:00",
        "meta_object_name": "GAOFEN-1",
        "meta_object_id": "2013-018A",
        "meta_epoch": "2025-12-24T05:20:33.900576",
        "meta_mean_motion": 14.76498296,
        "meta_eccentricity": 0.0018486,
        "meta_inclination": 97.9314,
        "meta_ra_of_asc_node": 68.6783,
        "meta_arg_of_pericenter": 108.2648,
        "meta_mean_anomaly": 252.0575,
        "meta_ephemeris_type": 0,
        "meta_classification_type": "U",
        "meta_norad_cat_id": 39150,
        "meta_element_set_no": 999,
        "meta_rev_at_epoch": 68242,
        "meta_bstar": 0.00010602,
        "meta_mean_motion_dot": 6.89e-06,
        "meta_mean_motion_ddot": 0,
        "tle_line1": "1 39150U 13018A   25358.22261459  .00000689  00000+0  10602-3 0  9999",
        "tle_line2": "2 39150  97.9314  68.6783 0018486 108.2648 252.0575 14.76498296682421"
      },
      "geometry": {
        "type": "Point",
        "coordinates": [
          -153.91540186907602,
          -78.39920149570916
        ]
      }
    },
    {
      "type": "Feature",
      "properties": {
        "norad_id": 39160,
        "name": "VNREDSAT 1",
        "group": "resource",
        "lat": -17.83469370201759,
        "lon": -129.2994565484513,
        "alt_km": 682.6163807050743,
        "timestamp": "2025-12-24T09:46:30.652427+00:00",
        "meta_object_name": "VNREDSAT 1",
        "meta_object_id": "2013-021B",
        "meta_epoch": "2025-12-24T03:57:24.792192",
        "meta_mean_motion": 14.6493862,
        "meta_eccentricity": 0.000116,
        "meta_inclination": 97.9355,
        "meta_ra_of_asc_node": 53.0388,
        "meta_arg_of_pericenter": 83.6891,
        "meta_mean_anomaly": 276.4445,
        "meta_ephemeris_type": 0,
        "meta_classification_type": "U",
        "meta_norad_cat_id": 39160,
        "meta_element_set_no": 999,
        "meta_rev_at_epoch": 67466,
        "meta_bstar": 0.00011036,
        "meta_mean_motion_dot": 5.45e-06,
        "meta_mean_motion_ddot": 0,
        "tle_line1": "1 39160U 13021B   25358.16487028  .00000545  00000+0  11036-3 0  9992",
        "tle_line2": "2 39160  97.9355  53.0388 0001160  83.6891 276.4445 14.64938620674663"
      },
      "geometry": {
        "type": "Point",
        "coordinates": [
          -129.2994565484513,
          -17.83469370201759
        ]
      }
    }
  ]
}